CCSDS_OMM_VERS = 2.0
CREATION_DATE  = 
ORIGINATOR     = 

OBJECT_NAME    = STARLINK-34616
OBJECT_ID      = 2025-253B
CENTER_NAME    = EARTH
REF_FRAME      = TEME
TIME_SYSTEM    = UTC
MEAN_ELEMENT_THEORY = SGP/SGP4

EPOCH          = 2025-11-16T12:00:02.000160
MEAN_MOTION    = 15.86746072
ECCENTRICITY   = .0001538
INCLINATION    = 42.9957
RA_OF_ASC_NODE = 140.0763
ARG_OF_PERICENTER = 272.1831
MEAN_ANOMALY   = 247.8319

EPHEMERIS_TYPE = 0
CLASSIFICATION_TYPE = U
NORAD_CAT_ID   = 66320
ELEMENT_SET_NO = 999
REV_AT_EPOCH   = 291
BSTAR          = -.64152E-2
MEAN_MOTION_DOT = -.1499665E-1
MEAN_MOTION_DDOT = 0

CCSDS_OMM_VERS = 2.0
CREATION_DATE  = 
ORIGINATOR     = 

OBJECT_NAME    = STARLINK-34615
OBJECT_ID      = 2025-253C
CENTER_NAME    = EARTH
REF_FRAME      = TEME
TIME_SYSTEM    = UTC
MEAN_ELEMENT_THEORY = SGP/SGP4

EPOCH          = 2025-11-16T12:00:02.000160
MEAN_MOTION    = 15.86758769
ECCENTRICITY   = .0001493
INCLINATION    = 42.9959
RA_OF_ASC_NODE = 140.0706
ARG_OF_PERICENTER = 272.0836
MEAN_ANOMALY   = 250.4206

EPHEMERIS_TYPE = 0
CLASSIFICATION_TYPE = U
NORAD_CAT_ID   = 66321
ELEMENT_SET_NO = 999
REV_AT_EPOCH   = 275
BSTAR          = -.64587E-2
MEAN_MOTION_DOT = -.1509441E-1
MEAN_MOTION_DDOT = 0

CCSDS_OMM_VERS = 2.0
CREATION_DATE  = 
ORIGINATOR     = 

OBJECT_NAME    = STARLINK-35292
OBJECT_ID      = 2025-253D
CENTER_NAME    = EARTH
REF_FRAME      = TEME
TIME_SYSTEM    = UTC
MEAN_ELEMENT_THEORY = SGP/SGP4

EPOCH          = 2025-11-13T18:00:02.999808
MEAN_MOTION    = 15.95628994
ECCENTRICITY   = .00018883
INCLINATION    = 42.9976
RA_OF_ASC_NODE = 157.1291
ARG_OF_PERICENTER = 266.8050
MEAN_ANOMALY   = 334.2090

EPHEMERIS_TYPE = 0
CLASSIFICATION_TYPE = U
NORAD_CAT_ID   = 66322
ELEMENT_SET_NO = 999
REV_AT_EPOCH   = 226
BSTAR          = -.36955911E-2
MEAN_MOTION_DOT = -.1536472E-1
MEAN_MOTION_DDOT = .68747414E-3

CCSDS_OMM_VERS = 2.0
CREATION_DATE  = 
ORIGINATOR     = 

OBJECT_NAME    = STARLINK-35309
OBJECT_ID      = 2025-253E
CENTER_NAME    = EARTH
REF_FRAME      = TEME
TIME_SYSTEM    = UTC
MEAN_ELEMENT_THEORY = SGP/SGP4

EPOCH          = 2025-11-16T12:00:02.000160
MEAN_MOTION    = 15.86767113
ECCENTRICITY   = .0001481
INCLINATION    = 42.9960
RA_OF_ASC_NODE = 140.0239
ARG_OF_PERICENTER = 270.2756
MEAN_ANOMALY   = 271.0337

EPHEMERIS_TYPE = 0
CLASSIFICATION_TYPE = U
NORAD_CAT_ID   = 66323
ELEMENT_SET_NO = 999
REV_AT_EPOCH   = 271
BSTAR          = -.67887E-2
MEAN_MOTION_DOT = -.1577665E-1
MEAN_MOTION_DDOT = 0

CCSDS_OMM_VERS = 2.0
CREATION_DATE  = 
ORIGINATOR     = 

OBJECT_NAME    = STARLINK-35506
OBJECT_ID      = 2025-253F
CENTER_NAME    = EARTH
REF_FRAME      = TEME
TIME_SYSTEM    = UTC
MEAN_ELEMENT_THEORY = SGP/SGP4

EPOCH          = 2025-11-16T12:00:02.000160
MEAN_MOTION    = 15.86696496
ECCENTRICITY   = .0001537
INCLINATION    = 42.9959
RA_OF_ASC_NODE = 140.0461
ARG_OF_PERICENTER = 270.2216
MEAN_ANOMALY   = 261.9116

EPHEMERIS_TYPE = 0
CLASSIFICATION_TYPE = U
NORAD_CAT_ID   = 66324
ELEMENT_SET_NO = 999
REV_AT_EPOCH   = 280
BSTAR          = -.66757E-2
MEAN_MOTION_DOT = -.1549829E-1
MEAN_MOTION_DDOT = 0

CCSDS_OMM_VERS = 2.0
CREATION_DATE  = 
ORIGINATOR     = 

OBJECT_NAME    = STARLINK-35504
OBJECT_ID      = 2025-253G
CENTER_NAME    = EARTH
REF_FRAME      = TEME
TIME_SYSTEM    = UTC
MEAN_ELEMENT_THEORY = SGP/SGP4

EPOCH          = 2025-11-16T12:00:02.000160
MEAN_MOTION    = 15.86727231
ECCENTRICITY   = .0001494
INCLINATION    = 42.9962
RA_OF_ASC_NODE = 140.0346
ARG_OF_PERICENTER = 272.2458
MEAN_ANOMALY   = 264.7371

EPHEMERIS_TYPE = 0
CLASSIFICATION_TYPE = U
NORAD_CAT_ID   = 66325
ELEMENT_SET_NO = 999
REV_AT_EPOCH   = 271
BSTAR          = -.67511E-2
MEAN_MOTION_DOT = -.1567265E-1
MEAN_MOTION_DDOT = 0

CCSDS_OMM_VERS = 2.0
CREATION_DATE  = 
ORIGINATOR     = 

OBJECT_NAME    = STARLINK-35479
OBJECT_ID      = 2025-253H
CENTER_NAME    = EARTH
REF_FRAME      = TEME
TIME_SYSTEM    = UTC
MEAN_ELEMENT_THEORY = SGP/SGP4

EPOCH          = 2025-11-16T12:00:02.000160
MEAN_MOTION    = 15.86799365
ECCENTRICITY   = .0001392
INCLINATION    = 42.9959
RA_OF_ASC_NODE = 140.0182
ARG_OF_PERICENTER = 271.4808
MEAN_ANOMALY   = 271.7517

EPHEMERIS_TYPE = 0
CLASSIFICATION_TYPE = U
NORAD_CAT_ID   = 66326
ELEMENT_SET_NO = 999
REV_AT_EPOCH   = 280
BSTAR          = -.68058E-2
MEAN_MOTION_DOT = -.1583284E-1
MEAN_MOTION_DDOT = 0

CCSDS_OMM_VERS = 2.0
CREATION_DATE  = 
ORIGINATOR     = 

OBJECT_NAME    = STARLINK-35507
OBJECT_ID      = 2025-253J
CENTER_NAME    = EARTH
REF_FRAME      = TEME
TIME_SYSTEM    = UTC
MEAN_ELEMENT_THEORY = SGP/SGP4

EPOCH          = 2025-11-16T12:00:02.000160
MEAN_MOTION    = 15.86766155
ECCENTRICITY   = .0001504
INCLINATION    = 42.9962
RA_OF_ASC_NODE = 140.0576
ARG_OF_PERICENTER = 271.0020
MEAN_ANOMALY   = 256.7841

EPHEMERIS_TYPE = 0
CLASSIFICATION_TYPE = U
NORAD_CAT_ID   = 66327
ELEMENT_SET_NO = 999
REV_AT_EPOCH   = 280
BSTAR          = -.65493E-2
MEAN_MOTION_DOT = -.1528607E-1
MEAN_MOTION_DDOT = 0

CCSDS_OMM_VERS = 2.0
CREATION_DATE  = 
ORIGINATOR     = 

OBJECT_NAME    = STARLINK-35460
OBJECT_ID      = 2025-253K
CENTER_NAME    = EARTH
REF_FRAME      = TEME
TIME_SYSTEM    = UTC
MEAN_ELEMENT_THEORY = SGP/SGP4

EPOCH          = 2025-11-16T12:00:02.000160
MEAN_MOTION    = 15.86896194
ECCENTRICITY   = .0001492
INCLINATION    = 42.9956
RA_OF_ASC_NODE = 140.0018
ARG_OF_PERICENTER = 270.2918
MEAN_ANOMALY   = 279.0327

EPHEMERIS_TYPE = 0
CLASSIFICATION_TYPE = U
NORAD_CAT_ID   = 66328
ELEMENT_SET_NO = 999
REV_AT_EPOCH   = 280
BSTAR          = -.69635E-2
MEAN_MOTION_DOT = -.1622247E-1
MEAN_MOTION_DDOT = 0

CCSDS_OMM_VERS = 2.0
CREATION_DATE  = 
ORIGINATOR     = 

OBJECT_NAME    = STARLINK-35505
OBJECT_ID      = 2025-253L
CENTER_NAME    = EARTH
REF_FRAME      = TEME
TIME_SYSTEM    = UTC
MEAN_ELEMENT_THEORY = SGP/SGP4

EPOCH          = 2025-11-16T12:00:02.000160
MEAN_MOTION    = 15.86752774
ECCENTRICITY   = .0001438
INCLINATION    = 42.9962
RA_OF_ASC_NODE = 140.0637
ARG_OF_PERICENTER = 272.9699
MEAN_ANOMALY   = 252.6254

EPHEMERIS_TYPE = 0
CLASSIFICATION_TYPE = U
NORAD_CAT_ID   = 66329
ELEMENT_SET_NO = 999
REV_AT_EPOCH   = 271
BSTAR          = -.65326E-2
MEAN_MOTION_DOT = -.1524226E-1
MEAN_MOTION_DDOT = 0

CCSDS_OMM_VERS = 2.0
CREATION_DATE  = 
ORIGINATOR     = 

OBJECT_NAME    = STARLINK-35512
OBJECT_ID      = 2025-253M
CENTER_NAME    = EARTH
REF_FRAME      = TEME
TIME_SYSTEM    = UTC
MEAN_ELEMENT_THEORY = SGP/SGP4

EPOCH          = 2025-11-16T12:00:02.000160
MEAN_MOTION    = 15.86757466
ECCENTRICITY   = .0001492
INCLINATION    = 42.9960
RA_OF_ASC_NODE = 140.0295
ARG_OF_PERICENTER = 269.4681
MEAN_ANOMALY   = 269.4746

EPHEMERIS_TYPE = 0
CLASSIFICATION_TYPE = U
NORAD_CAT_ID   = 66330
ELEMENT_SET_NO = 999
REV_AT_EPOCH   = 271
BSTAR          = -.67637E-2
MEAN_MOTION_DOT = -.1571918E-1
MEAN_MOTION_DDOT = 0

CCSDS_OMM_VERS = 2.0
CREATION_DATE  = 
ORIGINATOR     = 

OBJECT_NAME    = STARLINK-35257
OBJECT_ID      = 2025-253N
CENTER_NAME    = EARTH
REF_FRAME      = TEME
TIME_SYSTEM    = UTC
MEAN_ELEMENT_THEORY = SGP/SGP4

EPOCH          = 2025-11-16T12:00:02.000160
MEAN_MOTION    = 15.87004598
ECCENTRICITY   = .0001531
INCLINATION    = 42.9959
RA_OF_ASC_NODE = 139.9865
ARG_OF_PERICENTER = 267.5014
MEAN_ANOMALY   = 288.2112

EPHEMERIS_TYPE = 0
CLASSIFICATION_TYPE = U
NORAD_CAT_ID   = 66331
ELEMENT_SET_NO = 999
REV_AT_EPOCH   = 244
BSTAR          = -.73969E-2
MEAN_MOTION_DOT = -.1717555E-1
MEAN_MOTION_DDOT = 0

