STARLINK-34616          
1 66320U 25253B   25320.50002315 -.01499665  00000+0 -64152-2 0  9993
2 66320  42.9957 140.0763 0001538 272.1831 247.8319 15.86746072  2919
STARLINK-34615          
1 66321U 25253C   25320.50002315 -.01509441  00000+0 -64587-2 0  9990
2 66321  42.9959 140.0706 0001493 272.0836 250.4206 15.86758769  2756
STARLINK-35292          
1 66322U 25253D   25317.75003472 -.01536472  68747-3 -36956-2 0  9998
2 66322  42.9976 157.1291 0001888 266.8050 334.2090 15.95628994  2265
STARLINK-35309          
1 66323U 25253E   25320.50002315 -.01577665  00000+0 -67887-2 0  9991
2 66323  42.9960 140.0239 0001481 270.2756 271.0337 15.86767113  2712
STARLINK-35506          
1 66324U 25253F   25320.50002315 -.01549829  00000+0 -66757-2 0  9998
2 66324  42.9959 140.0461 0001537 270.2216 261.9116 15.86696496  2809
STARLINK-35504          
1 66325U 25253G   25320.50002315 -.01567265  00000+0 -67511-2 0  9992
2 66325  42.9962 140.0346 0001494 272.2458 264.7371 15.86727231  2714
STARLINK-35479          
1 66326U 25253H   25320.50002315 -.01583284  00000+0 -68058-2 0  9999
2 66326  42.9959 140.0182 0001392 271.4808 271.7517 15.86799365  2803
STARLINK-35507          
1 66327U 25253J   25320.50002315 -.01528607  00000+0 -65493-2 0  9998
2 66327  42.9962 140.0576 0001504 271.0020 256.7841 15.86766155  2806
STARLINK-35460          
1 66328U 25253K   25320.50002315 -.01622247  00000+0 -69635-2 0  9996
2 66328  42.9956 140.0018 0001492 270.2918 279.0327 15.86896194  2808
STARLINK-35505          
1 66329U 25253L   25320.50002315 -.01524226  00000+0 -65326-2 0  9998
2 66329  42.9962 140.0637 0001438 272.9699 252.6254 15.86752774  2719
STARLINK-35512          
1 66330U 25253M   25320.50002315 -.01571918  00000+0 -67637-2 0  9997
2 66330  42.9960 140.0295 0001492 269.4681 269.4746 15.86757466  2716
STARLINK-35257          
1 66331U 25253N   25320.50002315 -.01717555  00000+0 -73969-2 0  9992
2 66331  42.9959 139.9865 0001531 267.5014 288.2112 15.87004598  2446
